OBJECT_NAME,OBJECT_ID,EPOCH,MEAN_MOTION,ECCENTRICITY,INCLINATION,RA_OF_ASC_NODE,ARG_OF_PERICENTER,MEAN_ANOMALY,EPHEMERIS_TYPE,CLASSIFICATION_TYPE,NORAD_CAT_ID,ELEMENT_SET_NO,REV_AT_EPOCH,BSTAR,MEAN_MOTION_DOT,MEAN_MOTION_DDOT
2026-134A,2026-134A,2026-07-13T04:14:19.665600,15.09451639,.00159297,97.7006,264.3833,177.3314,182.8003,0,U,69538,999,423,.17124948E-3,.2682E-4,0
2026-134B,2026-134B,2026-07-13T00:59:14.784576,15.09607553,.00159983,97.6979,264.2453,180.2919,179.8303,0,U,69539,999,420,.17674607E-3,.2782E-4,0
2026-134C,2026-134C,2026-07-13T00:58:24.186144,15.09639430,.00154791,97.6986,264.2482,181.4206,178.6981,0,U,69540,999,420,.1709042E-3,.269E-4,0
2026-134D,2026-134D,2026-07-13T04:07:45.856992,15.09698095,.00165564,97.7025,264.3963,180.8405,179.2799,0,U,69541,999,422,.17486008E-3,.2759E-4,0
2026-134E,2026-134E,2026-07-13T04:07:10.742304,15.09719453,.00162544,97.7044,264.4035,181.4797,178.6386,0,U,69542,999,422,.16886233E-3,.2664E-4,0
2026-134F,2026-134F,2026-07-13T04:05:57.400800,15.09764757,.00155658,97.6997,264.3881,183.1513,176.9620,0,U,69543,999,422,.16747891E-3,.2644E-4,0
2026-134G,2026-134G,2026-07-13T12:00:52.905312,15.09850767,.0016043,97.7041,264.7385,182.9322,177.1816,0,U,69544,999,427,.16262E-3,.2572E-4,0
2026-134H,2026-134H,2026-07-13T00:51:05.256000,15.09915965,.00158234,97.7025,264.2689,185.7695,174.3354,0,U,69545,999,419,.1814306E-3,.2882E-4,0
STARLINK-37880,2026-135A,2026-07-13T12:00:00.998784,15.49149610,.0000488,97.2842,222.7777,143.7658,91.7510,0,U,69546,999,553,.16664E-2,.91475E-3,0
STARLINK-37881,2026-135B,2026-07-13T12:00:00.998784,15.49128499,.0001314,97.2847,222.8702,70.3401,22.6022,0,U,69547,999,553,.20013E-2,.110054E-2,0
STARLINK-37265,2026-135C,2026-07-13T12:00:00.998784,15.56940193,.0001752,97.2845,222.9471,100.6619,163.9165,0,U,69548,999,553,-.38406E-1,-.24148E-1,0
STARLINK-37871,2026-135D,2026-07-13T12:00:00.998784,15.51732847,.0002001,97.2843,222.8646,51.4081,19.5413,0,U,69549,999,553,-.57015E-1,-.2944462E-1,0
STARLINK-37865,2026-135E,2026-07-13T12:00:00.998784,15.51552379,.0001941,97.2835,222.8769,71.6868,27.2928,0,U,69550,999,553,-.53465E-1,-.2768767E-1,0
STARLINK-37862,2026-135F,2026-07-13T12:00:00.998784,15.58913938,.0001805,97.2839,222.9331,93.2346,136.4764,0,U,69551,999,553,-.31151E-1,-.2144213E-1,0
STARLINK-37861,2026-135G,2026-07-13T12:00:00.998784,15.49086079,.0000638,97.2839,222.8977,133.0608,22.7016,0,U,69552,999,553,.1934E-2,.106143E-2,0
STARLINK-37859,2026-135H,2026-07-13T12:00:00.998784,15.51771974,.000177,97.2837,222.9156,81.1646,108.2940,0,U,69553,999,553,-.11672E-1,-.642012E-2,0
STARLINK-37860,2026-135J,2026-07-13T12:00:00.998784,15.54823215,.0001454,97.2844,222.9517,153.3215,119.1018,0,U,69554,999,553,-.39918E-1,-.2331378E-1,0
STARLINK-37858,2026-135K,2026-07-13T12:00:00.998784,15.53874728,.0001703,97.2843,222.9388,111.5066,133.1481,0,U,69555,999,553,-.4203E-1,-.2365958E-1,0
STARLINK-37927,2026-135L,2026-07-13T12:00:00.998784,15.49127452,.0001171,97.2837,222.8938,87.7386,53.2852,0,U,69556,999,553,.20108E-2,.110582E-2,0
STARLINK-37929,2026-135M,2026-07-13T12:00:00.998784,15.49153598,.0001721,97.2842,222.8499,97.3387,306.6930,0,U,69557,999,553,.17003E-2,.93374E-3,0
STARLINK-37954,2026-135N,2026-07-13T12:00:00.998784,15.49159240,.0000811,97.2843,222.8540,95.1450,315.7071,0,U,69558,999,553,.18531E-2,.1019E-2,0
STARLINK-37958,2026-135P,2026-07-13T12:00:00.998784,15.59997817,.0001188,97.2846,222.9942,106.8200,272.9648,0,U,69559,999,553,-.35441E-1,-.2490504E-1,0
STARLINK-37950,2026-135Q,2026-07-13T12:00:00.998784,15.53995163,.0001538,97.2851,222.9512,84.7889,186.2366,0,U,69560,999,553,-.44336E-1,-.2487862E-1,0
STARLINK-37952,2026-135R,2026-07-13T12:00:00.998784,15.49140113,.0001487,97.2840,222.9022,77.6654,90.0177,0,U,69561,999,553,.18377E-2,.100976E-2,0
STARLINK-37935,2026-135S,2026-07-13T12:00:00.998784,15.49143430,.0001647,97.2843,222.8582,94.2387,326.2489,0,U,69562,999,553,.18606E-2,.102267E-2,0
STARLINK-37936,2026-135T,2026-07-13T12:00:00.998784,15.49160454,.0001762,97.2838,222.8916,89.9017,48.5297,0,U,69563,999,553,.18977E-2,.104398E-2,0
STARLINK-37932,2026-135U,2026-07-13T12:00:00.998784,15.54886155,.0001229,97.2841,222.9897,107.8656,251.3672,0,U,69564,999,553,-.40197E-1,-.2350247E-1,0
STARLINK-37916,2026-135V,2026-07-13T12:00:00.998784,15.52337175,.0001273,97.2843,222.9512,84.5695,186.4117,0,U,69565,999,553,-.54068E-1,-.2865118E-1,0
STARLINK-37909,2026-135W,2026-07-13T12:00:00.998784,15.60253649,.0001894,97.2838,223.0370,76.4702,45.1190,0,U,69566,999,554,-.36091E-1,-.2552379E-1,0
STARLINK-37934,2026-135X,2026-07-13T12:00:00.998784,15.49505462,.0001241,97.2840,222.9510,69.1343,207.2318,0,U,69567,999,553,-.90144E-2,-.467531E-2,0
