2026-134A               
1 69538U 26134A   26194.17661650  .00002682  00000+0  17125-3 0  9997
2 69538  97.7006 264.3833 0015929 177.3314 182.8003 15.09451639  4237
2026-134B               
1 69539U 26134B   26194.04114334  .00002782  00000+0  17675-3 0  9997
2 69539  97.6979 264.2453 0015998 180.2919 179.8303 15.09607553  4207
2026-134C               
1 69540U 26134C   26194.04055771  .00002690  00000+0  17090-3 0  9997
2 69540  97.6986 264.2482 0015479 181.4206 178.6981 15.09639430  4203
2026-134D               
1 69541U 26134D   26194.17205853  .00002759  00000+0  17486-3 0  9995
2 69541  97.7025 264.3963 0016556 180.8405 179.2799 15.09698095  4223
2026-134E               
1 69542U 26134E   26194.17165211  .00002664  00000+0  16886-3 0  9997
2 69542  97.7044 264.4035 0016254 181.4797 178.6386 15.09719453  4229
2026-134F               
1 69543U 26134F   26194.17080325  .00002644  00000+0  16748-3 0  9995
2 69543  97.6997 264.3881 0015565 183.1513 176.9620 15.09764757  4222
2026-134G               
1 69544U 26134G   26194.50061233  .00002572  00000+0  16262-3 0  9991
2 69544  97.7041 264.7385 0016043 182.9322 177.1816 15.09850767  4276
2026-134H               
1 69545U 26134H   26194.03547750  .00002882  00000+0  18143-3 0  9997
2 69545  97.7025 264.2689 0015823 185.7695 174.3354 15.09915965  4199
STARLINK-37880          
1 69546U 26135A   26194.50001156  .00091475  00000+0  16664-2 0  9997
2 69546  97.2842 222.7777 0000488 143.7658  91.7510 15.49149610  5538
STARLINK-37881          
1 69547U 26135B   26194.50001156  .00110054  00000+0  20013-2 0  9996
2 69547  97.2847 222.8702 0001314  70.3401  22.6022 15.49128499  5536
STARLINK-37265          
1 69548U 26135C   26194.50001156 -.02414800  00000+0 -38406-1 0  9991
2 69548  97.2845 222.9471 0001752 100.6619 163.9165 15.56940193  5531
STARLINK-37871          
1 69549U 26135D   26194.50001156 -.02944462  00000+0 -57015-1 0  9991
2 69549  97.2843 222.8646 0002001  51.4081  19.5413 15.51732847  5539
STARLINK-37865          
1 69550U 26135E   26194.50001156 -.02768767  00000+0 -53465-1 0  9990
2 69550  97.2835 222.8769 0001941  71.6868  27.2928 15.51552379  5534
STARLINK-37862          
1 69551U 26135F   26194.50001156 -.02144213  00000+0 -31151-1 0  9993
2 69551  97.2839 222.9331 0001805  93.2346 136.4764 15.58913938  5535
STARLINK-37861          
1 69552U 26135G   26194.50001156  .00106143  00000+0  19340-2 0  9997
2 69552  97.2839 222.8977 0000638 133.0608  22.7016 15.49086079  5532
STARLINK-37859          
1 69553U 26135H   26194.50001156 -.00642012  00000+0 -11672-1 0  9999
2 69553  97.2837 222.9156 0001770  81.1646 108.2940 15.51771974  5538
STARLINK-37860          
1 69554U 26135J   26194.50001156 -.02331378  00000+0 -39918-1 0  9995
2 69554  97.2844 222.9517 0001454 153.3215 119.1018 15.54823215  5537
STARLINK-37858          
1 69555U 26135K   26194.50001156 -.02365958  00000+0 -42030-1 0  9996
2 69555  97.2843 222.9388 0001703 111.5066 133.1481 15.53874728  5534
STARLINK-37927          
1 69556U 26135L   26194.50001156  .00110582  00000+0  20108-2 0  9997
2 69556  97.2837 222.8938 0001171  87.7386  53.2852 15.49127452  5530
STARLINK-37929          
1 69557U 26135M   26194.50001156  .00093374  00000+0  17003-2 0  9997
2 69557  97.2842 222.8499 0001721  97.3387 306.6930 15.49153598  5530
STARLINK-37954          
1 69558U 26135N   26194.50001156  .00101900  00000+0  18531-2 0  9990
2 69558  97.2843 222.8540 0000811  95.1450 315.7071 15.49159240  5532
STARLINK-37958          
1 69559U 26135P   26194.50001156 -.02490504  00000+0 -35441-1 0  9994
2 69559  97.2846 222.9942 0001188 106.8200 272.9648 15.59997817  5539
STARLINK-37950          
1 69560U 26135Q   26194.50001156 -.02487862  00000+0 -44336-1 0  9992
2 69560  97.2851 222.9512 0001538  84.7889 186.2366 15.53995163  5536
STARLINK-37952          
1 69561U 26135R   26194.50001156  .00100976  00000+0  18377-2 0  9994
2 69561  97.2840 222.9022 0001487  77.6654  90.0177 15.49140113  5539
STARLINK-37935          
1 69562U 26135S   26194.50001156  .00102267  00000+0  18606-2 0  9995
2 69562  97.2843 222.8582 0001647  94.2387 326.2489 15.49143430  5534
STARLINK-37936          
1 69563U 26135T   26194.50001156  .00104398  00000+0  18977-2 0  9994
2 69563  97.2838 222.8916 0001762  89.9017  48.5297 15.49160454  5535
STARLINK-37932          
1 69564U 26135U   26194.50001156 -.02350247  00000+0 -40197-1 0  9993
2 69564  97.2841 222.9897 0001229 107.8656 251.3672 15.54886155  5536
STARLINK-37916          
1 69565U 26135V   26194.50001156 -.02865118  00000+0 -54068-1 0  9994
2 69565  97.2843 222.9512 0001273  84.5695 186.4117 15.52337175  5539
STARLINK-37909          
1 69566U 26135W   26194.50001156 -.02552379  00000+0 -36091-1 0  9993
2 69566  97.2838 223.0370 0001894  76.4702  45.1190 15.60253649  5541
STARLINK-37934          
1 69567U 26135X   26194.50001156 -.00467531  00000+0 -90144-2 0  9997
2 69567  97.2840 222.9510 0001241  69.1343 207.2318 15.49505462  5537
